{
  "type": "FeatureCollection",
  "features": [
    {
      "type": "Feature",
      "properties": {
        "name": "JAIST"
      },
      "geometry": {
        "coordinates": [
          136.59205135317507,
          36.443636347777144
        ],
        "type": "Point"
      },
      "id": 0
    },
    {
      "type": "Feature",
      "properties": {
        "name": "小松駅"
      },
      "geometry": {
        "coordinates": [
          136.45254530065324,
          36.400578928934166
        ],
        "type": "Point"
      },
      "id": 2
    },
    {
      "type": "Feature",
      "properties": {},
      "geometry": {
        "coordinates": [
          [
            136.59204383082067,
            36.443643307997746
          ],
          [
            136.5919381558832,
            36.443835995526
          ],
          [
            136.5909976489466,
            36.443463371417266
          ],
          [
            136.5908003905734,
            36.44406835417591
          ],
          [
            136.59085322804208,
            36.44455715348727
          ],
          [
            136.5909131108516,
            36.44476825768457
          ],
          [
            136.59054993749402,
            36.44488024828833
          ],
          [
            136.5895882955699,
            36.445318038017405
          ],
          [
            136.5893344601439,
            36.44550147506115
          ],
          [
            136.5891160652754,
            36.445845753755506
          ],
          [
            136.58907027283203,
            36.44608523080612
          ],
          [
            136.58911254280702,
            36.44674119589132
          ],
          [
            136.58902093223742,
            36.44709470862682
          ],
          [
            136.58880077612093,
            36.447338390757935
          ],
          [
            136.58794657038214,
            36.44687794422836
          ],
          [
            136.5871859683088,
            36.446586304421146
          ],
          [
            136.58680789067392,
            36.44647878853567
          ],
          [
            136.58560319639372,
            36.44627902370172
          ],
          [
            136.58481415407073,
            36.446286104348644
          ],
          [
            136.58394445352968,
            36.44638892805561
          ],
          [
            136.5827725294459,
            36.44671360073701
          ],
          [
            136.5818900364016,
            36.44717123298088
          ],
          [
            136.58140656144724,
            36.447482515575516
          ],
          [
            136.580851768029,
            36.447951458975496
          ],
          [
            136.58011202361826,
            36.448785984024966
          ],
          [
            136.57949609778626,
            36.449551358889394
          ],
          [
            136.57932294239743,
            36.44992320277265
          ],
          [
            136.57918556497884,
            36.450479966681584
          ],
          [
            136.57924256625319,
            36.451404093115926
          ],
          [
            136.57933772368187,
            36.453246535420206
          ],
          [
            136.57939760614636,
            36.45371827725164
          ],
          [
            136.57951485725545,
            36.454109667052094
          ],
          [
            136.57701977734354,
            36.45417085909595
          ],
          [
            136.5736684508626,
            36.45423860536478
          ],
          [
            136.5734679468531,
            36.45396738221754
          ],
          [
            136.5727581635287,
            36.45335681087113
          ],
          [
            136.571962543256,
            36.45282863515175
          ],
          [
            136.57130593957078,
            36.45239937043124
          ],
          [
            136.5695444912581,
            36.45131379325362
          ],
          [
            136.56865030924388,
            36.450825414772495
          ],
          [
            136.56712136839104,
            36.450425830091746
          ],
          [
            136.5652755595505,
            36.4502955121135
          ],
          [
            136.56355343122567,
            36.44986928546905
          ],
          [
            136.56264233413094,
            36.449363925243986
          ],
          [
            136.55979971846568,
            36.447410343766265
          ],
          [
            136.55918983862892,
            36.447156314712885
          ],
          [
            136.55829013697257,
            36.44688991255484
          ],
          [
            136.5541393661387,
            36.44591753691435
          ],
          [
            136.5509641751426,
            36.4443408523462
          ],
          [
            136.54683354919462,
            36.44194018746012
          ],
          [
            136.545991197496,
            36.441370333111095
          ],
          [
            136.54445673700275,
            36.43994940507277
          ],
          [
            136.54357949631577,
            36.438537596751175
          ],
          [
            136.54192655455188,
            36.435045975292994
          ],
          [
            136.54138183256316,
            36.434365317917994
          ],
          [
            136.54031654164373,
            36.43357929936806
          ],
          [
            136.53919605430326,
            36.43298422918237
          ],
          [
            136.53688601946033,
            36.431913122855846
          ],
          [
            136.53500515053133,
            36.43051050226724
          ],
          [
            136.53221424837767,
            36.427867687996056
          ],
          [
            136.53129318771914,
            36.42666071618099
          ],
          [
            136.53018363455686,
            36.42462828096234
          ],
          [
            136.52684605906813,
            36.42400926438398
          ],
          [
            136.52554137997072,
            36.42394253955038
          ],
          [
            136.5227229795035,
            36.42408280338833
          ],
          [
            136.51713713700042,
            36.42405973985737
          ],
          [
            136.51004791768383,
            36.42347400253887
          ],
          [
            136.50829363854058,
            36.42320716469875
          ],
          [
            136.498998125429,
            36.42311958289167
          ],
          [
            136.49702704127765,
            36.42272822106567
          ],
          [
            136.49532474133036,
            36.422048482680324
          ],
          [
            136.4938400285958,
            36.42098766694738
          ],
          [
            136.49274339064618,
            36.42025105120797
          ],
          [
            136.49152746211178,
            36.419900872521325
          ],
          [
            136.48807166522585,
            36.4201480576406
          ],
          [
            136.4862413728024,
            36.4204364392849
          ],
          [
            136.48516567258713,
            36.420538430027136
          ],
          [
            136.48368095985063,
            36.41993076825395
          ],
          [
            136.4826940510302,
            36.41933794121165
          ],
          [
            136.4818065492778,
            36.419180072587196
          ],
          [
            136.48050799408236,
            36.41927780082126
          ],
          [
            136.47482784107888,
            36.42004464087502
          ],
          [
            136.47053225549166,
            36.415483868124255
          ],
          [
            136.4661853125079,
            36.411065894085326
          ],
          [
            136.46214463927248,
            36.40679575418234
          ],
          [
            136.45984024324304,
            36.403455320676926
          ],
          [
            136.45715326923823,
            36.399185868449166
          ],
          [
            136.4539539071701,
            36.39982877543211
          ],
          [
            136.4525577938163,
            36.39990127381468
          ],
          [
            136.4525668009993,
            36.400597254846446
          ]
        ],
        "type": "LineString"
      }
    }
  ]
}