{
  "type": "FeatureCollection",
  "features": [
    {
      "type": "Feature",
      "properties": {
        "name": "ハイテクセンター前"
      },
      "geometry": {
        "coordinates": [
          136.59172171141796,
          36.445727676985314
        ],
        "type": "Point"
      },
      "id": 2
    },
    {
      "type": "Feature",
      "properties": {
        "name": "宮竹ヘルスロード"
      },
      "geometry": {
        "coordinates": [
          136.5940582049002,
          36.452526412371284
        ],
        "type": "Point"
      },
      "id": 3
    },
    {
      "type": "Feature",
      "properties": {
        "name": "灯台笹"
      },
      "geometry": {
        "coordinates": [
          136.6043596286749,
          36.45342648174196
        ],
        "type": "Point"
      },
      "id": 4
    },
    {
      "type": "Feature",
      "properties": {
        "name": "岩本"
      },
      "geometry": {
        "coordinates": [
          136.61141717637446,
          36.45205553510803
        ],
        "type": "Point"
      },
      "id": 5
    },
    {
      "type": "Feature",
      "properties": {
        "name": "本鶴来"
      },
      "geometry": {
        "coordinates": [
          136.6228597247848,
          36.450284321192825
        ],
        "type": "Point"
      },
      "id": 6
    },
    {
      "type": "Feature",
      "properties": {
        "name": "鶴来駅"
      },
      "geometry": {
        "coordinates": [
          136.62370351464432,
          36.45290535270175
        ],
        "type": "Point"
      },
      "id": 6
    },
    {
      "type": "Feature",
      "properties": {
        "name": "鶴来本町"
      },
      "geometry": {
        "coordinates": [
          136.62510359376324,
          36.448508846217436
        ],
        "type": "Point"
      },
      "id": 8
    },
    {
      "type": "Feature",
      "properties": {
        "name": "JAIST"
      },
      "geometry": {
        "coordinates": [
          136.591656990032,
          36.443083307580395
        ],
        "type": "Point"
      },
      "id": 1
    },
    {
      "type": "Feature",
      "properties": {},
      "geometry": {
        "coordinates": [
          [
            136.59160839340683,
            36.44308395123167
          ],
          [
            136.5913571182126,
            36.443585640676844
          ],
          [
            136.59103318513047,
            36.44345169478312
          ],
          [
            136.59087878712035,
            36.44372689245978
          ],
          [
            136.59081521146834,
            36.4441262926605
          ],
          [
            136.59084284380333,
            36.444498813685556
          ],
          [
            136.5909821047535,
            36.4449030805857
          ],
          [
            136.59123640461462,
            36.44521967270872
          ],
          [
            136.5917722565349,
            36.445684818673655
          ],
          [
            136.59339494451456,
            36.446805051777304
          ],
          [
            136.5937370420669,
            36.44692925079036
          ],
          [
            136.59430316810716,
            36.447041273259615
          ],
          [
            136.596561738108,
            36.44701948767573
          ],
          [
            136.59704309661237,
            36.447114463147344
          ],
          [
            136.5975395921766,
            36.44729710795822
          ],
          [
            136.59825706835198,
            36.44791836387725
          ],
          [
            136.59852045319406,
            36.44851743104168
          ],
          [
            136.59846426224732,
            36.44927312778957
          ],
          [
            136.59818271293318,
            36.449786953129845
          ],
          [
            136.5975938849822,
            36.45027537399251
          ],
          [
            136.5968763883419,
            36.45055054746504
          ],
          [
            136.59566845096316,
            36.45074779510534
          ],
          [
            136.5949271235839,
            36.45110558605312
          ],
          [
            136.59446695696175,
            36.45153904006939
          ],
          [
            136.59420054470758,
            36.45213807927317
          ],
          [
            136.59388918947764,
            36.45323237305578
          ],
          [
            136.59976825404243,
            36.45375169921469
          ],
          [
            136.60049637459127,
            36.45374675469576
          ],
          [
            136.60958303210435,
            36.45269936046644
          ],
          [
            136.61002503425448,
            36.45258004088167
          ],
          [
            136.612058480877,
            36.451891919949986
          ],
          [
            136.61413527508813,
            36.4519479208071
          ],
          [
            136.61504688019284,
            36.45166688457856
          ],
          [
            136.61715931753122,
            36.45025038055728
          ],
          [
            136.6175831552075,
            36.45013349237762
          ],
          [
            136.61817047313184,
            36.4501846309782
          ],
          [
            136.62183338805391,
            36.451271546881884
          ],
          [
            136.6237746984442,
            36.44948151602604
          ],
          [
            136.62431660518865,
            36.4487436491258
          ],
          [
            136.6245862900842,
            36.448339758267636
          ],
          [
            136.6263828537202,
            36.44890521571905
          ],
          [
            136.62501218059725,
            36.452628257417544
          ],
          [
            136.62426747860485,
            36.45230595226522
          ],
          [
            136.6240928721058,
            36.4523279283151
          ],
          [
            136.6239052208486,
            36.45256105925958
          ],
          [
            136.62368412679507,
            36.45295708137371
          ]
        ],
        "type": "LineString"
      }
    }
  ]
}