{
  "type": "FeatureCollection",
  "features": [
    {
      "type": "Feature",
      "properties": {
        "name": "小松駅"
      },
      "geometry": {
        "type": "Point",
        "coordinates": [
          136.4525,
          36.4006
        ]
      },
      "id": 1
    },
    {
      "type": "Feature",
      "properties": {
        "name": "小松空港"
      },
      "geometry": {
        "type": "Point",
        "coordinates": [
          136.4063,
          36.3936
        ]
      },
      "id": 2
    },
    {
      "type": "Feature",
      "properties": {},
      "geometry": {
        "type": "LineString",
        "coordinates": [
          [
            136.4525,
            36.4006
          ],
          [
            136.444,
            36.3995
          ],
          [
            136.435,
            36.398
          ],
          [
            136.425,
            36.3965
          ],
          [
            136.416,
            36.395
          ],
          [
            136.4063,
            36.3936
          ]
        ]
      }
    }
  ]
}