{
  "type": "FeatureCollection",
  "features": [
    {
      "type": "Feature",
      "properties": {
        "name": "小松駅"
      },
      "geometry": {
        "coordinates": [136.4529601723939, 36.402561461500696],
        "type": "Point"
      },
      "id": 0
    },
    {
      "type": "Feature",
      "properties": {
        "name": "明峰駅"
      },
      "geometry": {
        "coordinates": [136.46305209200744, 36.42488252745771],
        "type": "Point"
      },
      "id": 1
    },
    {
      "type": "Feature",
      "properties": {
        "name": "能美根上駅"
      },
      "geometry": {
        "coordinates": [136.45938492672605, 36.452244311264664],
        "type": "Point"
      },
      "id": 2
    },
    {
      "type": "Feature",
      "properties": {
        "name": "小舞子駅"
      },
      "geometry": {
        "coordinates": [136.47484046886495, 36.47627930745095],
        "type": "Point"
      },
      "id": 3
    },
    {
      "type": "Feature",
      "properties": {
        "name": "美川駅"
      },
      "geometry": {
        "coordinates": [136.48905328056946, 36.48603150877776],
        "type": "Point"
      },
      "id": 4
    },
    {
      "type": "Feature",
      "properties": {
        "name": "加賀笠間駅"
      },
      "geometry": {
        "coordinates": [136.52739323919138, 36.50315654021131],
        "type": "Point"
      },
      "id": 5
    },
    {
      "type": "Feature",
      "properties": {
        "name": "西松任駅"
      },
      "geometry": {
        "coordinates": [136.54889002979883, 36.51782875865173],
        "type": "Point"
      },
      "id": 6
    },
    {
      "type": "Feature",
      "properties": {
        "name": "松任駅"
      },
      "geometry": {
        "coordinates": [136.56608204921508, 36.52672635552369],
        "type": "Point"
      },
      "id": 7
    },
    {
      "type": "Feature",
      "properties": {
        "name": "野々市駅"
      },
      "geometry": {
        "coordinates": [136.59799551247448, 36.5416747230029],
        "type": "Point"
      },
      "id": 8
    },
    {
      "type": "Feature",
      "properties": {
        "name": "西金沢駅"
      },
      "geometry": {
        "coordinates": [136.62134270446813, 36.55323868628436],
        "type": "Point"
      },
      "id": 9
    },
    {
      "type": "Feature",
      "properties": {
        "name": "金沢駅"
      },
      "geometry": {
        "coordinates": [136.64777925980127, 36.57827415964029],
        "type": "Point"
      },
      "id": 10
    },
    {
      "type": "Feature",
      "properties": {
        "name": "IRいしかわ鉄道線（小松〜金沢）"
      },
      "geometry": {
        "coordinates": [
          [136.45274187639893, 36.399503016292115],
          [136.45342038671026, 36.41233000177874],
          [136.45476046617455, 36.41432597977348],
          [136.45965005516587, 36.417515915186314],
          [136.4613350188555, 36.41950932183305],
          [136.46302524714912, 36.42423718858868],
          [136.46304197841863, 36.42693955495311],
          [136.4615932127707, 36.43657216476862],
          [136.45945491373527, 36.45045336241195],
          [136.45953061973626, 36.45252646668544],
          [136.47771002402743, 36.48090881032881],
          [136.47968195703697, 36.482381085918504],
          [136.48484773987923, 36.485226294072916],
          [136.48706113407366, 36.48569545769148],
          [136.4922335812513, 36.48650950306755],
          [136.49704268318055, 36.48799784975833],
          [136.5130032334, 36.493434060314826],
          [136.5157800370231, 36.4951002106301],
          [136.5416687001483, 36.51281182969248],
          [136.55664001157908, 36.52292633403992],
          [136.56050339053468, 36.524591849661576],
          [136.57096624096556, 36.528493570902384],
          [136.57434437270445, 36.53006392576053],
          [136.60272581038703, 36.544066043347],
          [136.617869083943, 36.55149483588531],
          [136.62300660296768, 36.55418068681918],
          [136.6319641149741, 36.56044576522463],
          [136.63677607037272, 36.563682274955],
          [136.64074595691733, 36.56835578088966],
          [136.64611846827677, 36.575498492523295],
          [136.65070942913223, 36.58148237317269]
        ],
        "type": "LineString"
      }
    }
  ]
}
