{
  "type": "FeatureCollection",
  "features": [
    {
      "type": "Feature",
      "properties": {
        "name": "鶴来駅"
      },
      "geometry": {
        "coordinates": [136.623879153578, 36.45230021955258],
        "type": "Point"
      },
      "id": 0
    },
    {
      "type": "Feature",
      "properties": {
        "name": "日御子駅"
      },
      "geometry": {
        "coordinates": [136.6149953870543, 36.46499326211192],
        "type": "Point"
      },
      "id": 1
    },
    {
      "type": "Feature",
      "properties": {
        "name": "小柳駅"
      },
      "geometry": {
        "coordinates": [136.61141300360453, 36.47113097387441],
        "type": "Point"
      },
      "id": 2
    },
    {
      "type": "Feature",
      "properties": {
        "name": "井口駅"
      },
      "geometry": {
        "coordinates": [136.61221831247536, 36.47674151592618],
        "type": "Point"
      },
      "id": 3
    },
    {
      "type": "Feature",
      "properties": {
        "name": "道法寺駅"
      },
      "geometry": {
        "coordinates": [136.6133752734408, 36.48427450310581],
        "type": "Point"
      },
      "id": 4
    },
    {
      "type": "Feature",
      "properties": {
        "name": "曽谷駅"
      },
      "geometry": {
        "coordinates": [136.61418951892506, 36.489808433505274],
        "type": "Point"
      },
      "id": 5
    },
    {
      "type": "Feature",
      "properties": {
        "name": "陽羽里駅"
      },
      "geometry": {
        "coordinates": [136.6147852055497, 36.49375606252315],
        "type": "Point"
      },
      "id": 6
    },
    {
      "type": "Feature",
      "properties": {
        "name": "四十万駅"
      },
      "geometry": {
        "coordinates": [136.61572180204155, 36.49893580144277],
        "type": "Point"
      },
      "id": 7
    },
    {
      "type": "Feature",
      "properties": {
        "name": "乙丸駅"
      },
      "geometry": {
        "coordinates": [136.6176227410529, 36.511844215670436],
        "type": "Point"
      },
      "id": 8
    },
    {
      "type": "Feature",
      "properties": {
        "name": "額住宅前駅"
      },
      "geometry": {
        "coordinates": [136.6188039645653, 36.51833704886218],
        "type": "Point"
      },
      "id": 9
    },
    {
      "type": "Feature",
      "properties": {
        "name": "馬替駅"
      },
      "geometry": {
        "coordinates": [136.62058752571716, 36.52310022733042],
        "type": "Point"
      },
      "id": 10
    },
    {
      "type": "Feature",
      "properties": {
        "name": "野々市工大前駅"
      },
      "geometry": {
        "coordinates": [136.6217782382085, 36.53289824995775],
        "type": "Point"
      },
      "id": 11
    },
    {
      "type": "Feature",
      "properties": {
        "name": "野々市駅"
      },
      "geometry": {
        "coordinates": [136.6209177093201, 36.536542666582974],
        "type": "Point"
      },
      "id": 12
    },
    {
      "type": "Feature",
      "properties": {
        "name": "押野駅"
      },
      "geometry": {
        "coordinates": [136.6220565337169, 36.54182753869367],
        "type": "Point"
      },
      "id": 13
    },
    {
      "type": "Feature",
      "properties": {
        "name": "新西金沢駅"
      },
      "geometry": {
        "coordinates": [136.6223792729507, 36.55315106151282],
        "type": "Point"
      },
      "id": 14
    },
    {
      "type": "Feature",
      "properties": {
        "name": "西泉駅"
      },
      "geometry": {
        "coordinates": [136.63358382829068, 36.553445287260146],
        "type": "Point"
      },
      "id": 15
    },
    {
      "type": "Feature",
      "properties": {
        "name": "野町駅"
      },
      "geometry": {
        "coordinates": [136.64435482198814, 36.55397286117578],
        "type": "Point"
      },
      "id": 16
    },
    {
      "type": "Feature",
      "properties": {
        "name": "北陸鉄道石川線（鶴来〜野町）"
      },
      "geometry": {
        "coordinates": [
          [136.62399303454498, 36.45185081677488],
          [136.62123261441008, 36.456017683452856],
          [136.61304589024815, 36.467741497262054],
          [136.61144809116422, 36.47023839342626],
          [136.61144809116422, 36.470983402669944],
          [136.61248797142844, 36.478281076158325],
          [136.61406789159315, 36.488343758057326],
          [136.61543522674094, 36.497589911257194],
          [136.6158511789717, 36.50002171056683],
          [136.61819739718788, 36.51537180078864],
          [136.61921836887802, 36.51983925303546],
          [136.62020153171318, 36.5220120515539],
          [136.62154392120254, 36.524959671273606],
          [136.62154392120254, 36.52637266344712],
          [136.62165736306736, 36.527785629811945],
          [136.62190314695385, 36.534166447649255],
          [136.6213737414488, 36.53526587385767],
          [136.62086325305353, 36.53596468331547],
          [136.6213737414488, 36.53757495932918],
          [136.62218674148454, 36.53918520181037],
          [136.6219409396092, 36.54436509552821],
          [136.62139262750503, 36.549301619530226],
          [136.62133589786913, 36.550957179553464],
          [136.620711967609, 36.552278567365775],
          [136.6215438746225, 36.55291647063784],
          [136.62233141968926, 36.553071209697805],
          [136.62411718198973, 36.553003361090674],
          [136.62633384766195, 36.552971089369095],
          [136.6312627979189, 36.55351387729934],
          [136.6321442580459, 36.55356400033476],
          [136.6422929332296, 36.55283266656764],
          [136.64286644072644, 36.55284562767834],
          [136.64347577178057, 36.553039481078585],
          [136.6439825421649, 36.55338841597198],
          [136.64445311466278, 36.554052357183124]
        ],
        "type": "LineString"
      }
    }
  ]
}
